[
  {
    "no": "1",
    "name": "サンドライクリーニング",
    "postalCode": "965-0005",
    "address": "会津若松市一箕町大字亀賀字郷之原３７３",
    "tel": "0242-25-1549",
    "area": "若松",
    "link": ""
  },
  {
    "no": "2",
    "name": "三浦クリーニング店",
    "postalCode": "965-0005",
    "address": "会津若松市一箕町大字亀賀字藤原３６８－４",
    "tel": "0242-25-3333",
    "area": "若松",
    "link": ""
  },
  {
    "no": "3",
    "name": "上野ドライクリーニング店",
    "postalCode": "965-0035",
    "address": "会津若松市馬場町２－８",
    "tel": "0242-22-0733",
    "area": "若松",
    "link": ""
  },
  {
    "no": "4",
    "name": "(株)佐藤クリーニング",
    "postalCode": "965-0042",
    "address": "会津若松市大町一丁目９－２７",
    "tel": "0242-22-2200",
    "area": "若松",
    "link": "https://sato-cleaning.com/index.html"
  },
  {
    "no": "5",
    "name": "福栄舎クリーニング",
    "postalCode": "965-0044",
    "address": "会津若松市七日町１２－１２",
    "tel": "0242-22-3089",
    "area": "若松",
    "link": ""
  },
  {
    "no": "6",
    "name": "井上ドライクリーニング",
    "postalCode": "965-0045",
    "address": "会津若松市西七日町１３－４",
    "tel": "0242-25-1301",
    "area": "若松",
    "link": ""
  },
  {
    "no": "7",
    "name": "(株)斎藤クリーニング店",
    "postalCode": "965-0052",
    "address": "会津若松市町北町大字始字深町５５－３",
    "tel": "0242-32-0460",
    "area": "若松",
    "link": ""
  },
  {
    "no": "8",
    "name": "松屋クリーニング店",
    "postalCode": "965-0803",
    "address": "会津若松市城前６－３４",
    "tel": "0242-27-0694",
    "area": "若松",
    "link": ""
  },
  {
    "no": "9",
    "name": "(有)栗城クリーニング",
    "postalCode": "965-0817",
    "address": "会津若松市千石町４－１１",
    "tel": "0242-22-4352",
    "area": "若松",
    "link": "http://cleaning-aizu.com/"
  },
  {
    "no": "10",
    "name": "白水舎クリーニング",
    "postalCode": "965-0826",
    "address": "会津若松市門田町大字御山字村中３２５－３",
    "tel": "0242-26-3142",
    "area": "若松",
    "link": ""
  },
  {
    "no": "11",
    "name": "佐藤クリーニング店",
    "postalCode": "965-0837",
    "address": "会津若松市錦町２－７２",
    "tel": "0242-27-5061",
    "area": "若松",
    "link": ""
  },
  {
    "no": "12",
    "name": "クリーニング新城",
    "postalCode": "965-0861",
    "address": "会津若松市日新町２－５",
    "tel": "0242-27-6609",
    "area": "若松",
    "link": ""
  },
  {
    "no": "13",
    "name": "長谷川ドライクリーニング店",
    "postalCode": "965-0861",
    "address": "会津若松市日新町４－３４",
    "tel": "0242-27-5557",
    "area": "若松",
    "link": ""
  },
  {
    "no": "14",
    "name": "（合）染長",
    "postalCode": "965-0866",
    "address": "会津若松市新横町１－１５",
    "tel": "0242-26-0521",
    "area": "若松",
    "link": ""
  },
  {
    "no": "15",
    "name": "白新舎（阿部クリーニング）",
    "postalCode": "969-3111",
    "address": "猪苗代町字神明町３７０４－７",
    "tel": "0242-62-2419",
    "area": "若松",
    "link": ""
  },
  {
    "no": "16",
    "name": "(株)白成舎",
    "postalCode": "969-3123",
    "address": "猪苗代町字城南７０",
    "tel": "0242-62-4353",
    "area": "若松",
    "link": ""
  },
  {
    "no": "17",
    "name": "磐梯ランドリー",
    "postalCode": "969-3131",
    "address": "猪苗代町大字西館２８３",
    "tel": "0242-66-3999",
    "area": "若松",
    "link": ""
  },
  {
    "no": "18",
    "name": "(有)クリーニング太陽舎",
    "postalCode": "967-0004",
    "address": "南会津町田島字北下原甲２１００",
    "tel": "0241-62-0515",
    "area": "南会",
    "link": ""
  },
  {
    "no": "19",
    "name": "若木星クリーニング店",
    "postalCode": "967-0004",
    "address": "南会津町田島字西町甲４３４５－１",
    "tel": "0241-62-0826",
    "area": "南会",
    "link": ""
  },
  {
    "no": "20",
    "name": "(有)会津白芳商会",
    "postalCode": "967-0304",
    "address": "南会津町松戸原１４１",
    "tel": "0241-78-2026",
    "area": "南会",
    "link": ""
  },
  {
    "no": "21",
    "name": "小林クリーニング",
    "postalCode": "968-0601",
    "address": "只見町大字小林字下照岡５６２－３",
    "tel": "0241-86-2429",
    "area": "南会",
    "link": ""
  },
  {
    "no": "22",
    "name": "阿部クリーニング店",
    "postalCode": "966-0862",
    "address": "喜多方市字前田４９２０－３",
    "tel": "0241-22-0829",
    "area": "喜多方",
    "link": ""
  },
  {
    "no": "23",
    "name": "阿部クリーニング商会",
    "postalCode": "966-0847",
    "address": "喜多方市字町田８２８６－２",
    "tel": "0241-22-0618",
    "area": "喜多方",
    "link": "https://shimi-yogore.com/"
  },
  {
    "no": "24",
    "name": "遠藤クリーニング店",
    "postalCode": "966-0902",
    "address": "喜多方市松山町村松字大坪１８２３－１９",
    "tel": "0241-22-4218",
    "area": "喜多方",
    "link": ""
  },
  {
    "no": "25",
    "name": "白陽舎クリーニング",
    "postalCode": "966-0064",
    "address": "喜多方市字惣座宮２７５４",
    "tel": "0241-22-0803",
    "area": "喜多方",
    "link": ""
  },
  {
    "no": "26",
    "name": "斎藤クリーニング店",
    "postalCode": "966-0813",
    "address": "喜多方市字小田付道下７１３２",
    "tel": "0241-22-2318",
    "area": "喜多方",
    "link": ""
  },
  {
    "no": "27",
    "name": "白清舎クリーニング店",
    "postalCode": "966-0862",
    "address": "喜多方市字前田４９８６－２２",
    "tel": "0241-22-0775",
    "area": "喜多方",
    "link": ""
  },
  {
    "no": "28",
    "name": "星クリーニング",
    "postalCode": "966-0853",
    "address": "喜多方市字千苅８３５０",
    "tel": "0241-23-2135",
    "area": "喜多方",
    "link": ""
  },
  {
    "no": "29",
    "name": "洗濯工房えんどう",
    "postalCode": "966-0896",
    "address": "喜多方市諏訪１５",
    "tel": "0241-22-0931",
    "area": "喜多方",
    "link": ""
  },
  {
    "no": "30",
    "name": "上田クリーニング店",
    "postalCode": "969-4406",
    "address": "西会津町野沢字上原乙２４６４－４",
    "tel": "0241-45-3144",
    "area": "両沼",
    "link": ""
  },
  {
    "no": "31",
    "name": "恵美長クリーニング店",
    "postalCode": "969-6264",
    "address": "会津美里町字高田甲２９１８",
    "tel": "0242-54-3320",
    "area": "両沼",
    "link": ""
  },
  {
    "no": "32",
    "name": "タカハシクリーニング",
    "postalCode": "969-6531",
    "address": "会津坂下町字上口６７１－２",
    "tel": "0242-83-3572",
    "area": "両沼",
    "link": "https://www.takakuri.com/"
  },
  {
    "no": "33",
    "name": "白泉舎クリーニング店",
    "postalCode": "969-6562",
    "address": "会津坂下町字一丁田甲２３１８－２",
    "tel": "0242-83-2570",
    "area": "両沼",
    "link": ""
  }
]