[
  {
    "no": "1",
    "name": "三和クリーニング店",
    "postalCode": "970-0101",
    "address": "いわき市平下神谷字後原５９－６",
    "tel": "0246-34-2005",
    "area": "平",
    "link": ""
  },
  {
    "no": "2",
    "name": "(有)佐久間ドライ",
    "postalCode": "970-8014",
    "address": "いわき市平幕ノ内字五反田１０－４",
    "tel": "0246-25-3831",
    "area": "平",
    "link": ""
  },
  {
    "no": "3",
    "name": "ハセガワクリーニング",
    "postalCode": "970-8024",
    "address": "いわき市平北白土字中島２０－１",
    "tel": "0246-25-0636",
    "area": "平",
    "link": ""
  },
  {
    "no": "4",
    "name": "ファッションクリーニングマルヨシ",
    "postalCode": "970-8026",
    "address": "いわき市平字堤の内３－４",
    "tel": "0246-25-2517",
    "area": "平",
    "link": ""
  },
  {
    "no": "5",
    "name": "見形クリーニング店",
    "postalCode": "973-8402",
    "address": "いわき市内郷御厩町一丁目９０",
    "tel": "0246-26-2083",
    "area": "湯の内",
    "link": ""
  },
  {
    "no": "6",
    "name": "中屋クリーニング店",
    "postalCode": "973-8403",
    "address": "いわき市内郷綴町一の坪５５",
    "tel": "0246-26-2059",
    "area": "湯の内",
    "link": ""
  },
  {
    "no": "7",
    "name": "矢内クリーニング",
    "postalCode": "974-8211",
    "address": "いわき市金山町東台１４６－２",
    "tel": "0246-62-2393",
    "area": "勿来",
    "link": ""
  },
  {
    "no": "8",
    "name": "オノヤクリーニング店",
    "postalCode": "974-8261",
    "address": "いわき市植田町本町一丁目１１－１７",
    "tel": "0246-62-2764",
    "area": "勿来",
    "link": ""
  },
  {
    "no": "9",
    "name": "ウエダクリーニング",
    "postalCode": "974-8261",
    "address": "いわき市植田町根小屋２４－１６",
    "tel": "0246-63-5592",
    "area": "勿来",
    "link": ""
  },
  {
    "no": "10",
    "name": "叶益クリーニング",
    "postalCode": "971-8151",
    "address": "いわき市小名浜岡小名三丁目１－４７",
    "tel": "0246-53-2330",
    "area": "小名浜",
    "link": ""
  }
]