[
  {
    "no": "1",
    "name": "(株)セルクル",
    "postalCode": "962-0031",
    "address": "須賀川市影沼町２４７",
    "tel": "0248-73-2332",
    "area": "須賀川",
    "link": ""
  },
  {
    "no": "2",
    "name": "三橋クリーニング商会",
    "postalCode": "962-0125",
    "address": "須賀川市堀込字浦通南７５",
    "tel": "0248-68-2726",
    "area": "須賀川",
    "link": ""
  },
  {
    "no": "3",
    "name": "さとうクリーニング",
    "postalCode": "962-0403",
    "address": "須賀川市滑川字十貫内７４５－１",
    "tel": "0248-73-4462",
    "area": "須賀川",
    "link": ""
  },
  {
    "no": "4",
    "name": "高橋クリーニング",
    "postalCode": "962-0835",
    "address": "須賀川市千日堂７",
    "tel": "0248-73-3929",
    "area": "須賀川",
    "link": ""
  },
  {
    "no": "5",
    "name": "(有)すずきクリーニング",
    "postalCode": "961-0853",
    "address": "白河市新高山２１－１",
    "tel": "0248-22-7834",
    "area": "白河",
    "link": "http://suzukikuri-ningu.ocnk.net/"
  },
  {
    "no": "6",
    "name": "タシロ商会",
    "postalCode": "961-0936",
    "address": "白河市大工町２０",
    "tel": "0248-23-2893",
    "area": "白河",
    "link": ""
  },
  {
    "no": "7",
    "name": "クリーニングハウスムサシヤ",
    "postalCode": "961-0942",
    "address": "白河市愛宕町６０",
    "tel": "0248-23-3331",
    "area": "白河",
    "link": ""
  },
  {
    "no": "8",
    "name": "(有)クリーニングショップバルーン",
    "postalCode": "961-8061",
    "address": "西郷村小田倉前山１９７－２",
    "tel": "0248-25-2056",
    "area": "白河",
    "link": ""
  },
  {
    "no": "9",
    "name": "白光舎クリーニング",
    "postalCode": "963-6204",
    "address": "浅川町大字浅川字本町西裏５３－１３",
    "tel": "0247-36-3162",
    "area": "石川",
    "link": ""
  },
  {
    "no": "10",
    "name": "(有)クリーニングショップでうし",
    "postalCode": "963-6315",
    "address": "玉川村大字中字山ノ根４８－１",
    "tel": "0247-57-2515",
    "area": "石川",
    "link": ""
  },
  {
    "no": "11",
    "name": "芳賀クリーニング",
    "postalCode": "963-7845",
    "address": "石川町字高田１０２",
    "tel": "0247-26-0603",
    "area": "石川",
    "link": ""
  },
  {
    "no": "12",
    "name": "角田クリーニング",
    "postalCode": "963-8305",
    "address": "古殿町大字竹貫字古町１",
    "tel": "0247-53-2448",
    "area": "石川",
    "link": ""
  },
  {
    "no": "13",
    "name": "下川クリーニング店",
    "postalCode": "963-5405",
    "address": "塙町大字塙字桜木町３１７－１",
    "tel": "0247-43-0219",
    "area": "東白川",
    "link": ""
  },
  {
    "no": "14",
    "name": "(有)藤沢クリーニング店",
    "postalCode": "963-5405",
    "address": "塙町大字塙字栄町４１－１",
    "tel": "0247-43-0203",
    "area": "東白川",
    "link": ""
  },
  {
    "no": "15",
    "name": "白栄舎ドライクリーニング店",
    "postalCode": "963-6100",
    "address": "棚倉町鉄砲町３１",
    "tel": "0247-33-2331",
    "area": "東白川",
    "link": ""
  }
]