[
  {
    "no": "1",
    "name": "クリーニング松崎",
    "postalCode": "960-0101",
    "address": "福島市瀬上町東町一丁目２の６",
    "tel": "024-553-1832",
    "area": "福島",
    "link": ""
  },
  {
    "no": "2",
    "name": "(有)クリーンボーイ・キクタ",
    "postalCode": "960-0112",
    "address": "福島市南矢野目高畑２０－２",
    "tel": "024-557-2418",
    "area": "福島",
    "link": ""
  },
  {
    "no": "3",
    "name": "(株)白洗舎",
    "postalCode": "960-0112",
    "address": "福島市南矢野目字中道４",
    "tel": "024-557-5555",
    "area": "福島",
    "link": "https://hakusensha-cleaning.co.jp/"
  },
  {
    "no": "4",
    "name": "シャボン玉クリーニング店",
    "postalCode": "960-0241",
    "address": "福島市笹谷字横道４－８－３",
    "tel": "024-557-9553",
    "area": "福島",
    "link": ""
  },
  {
    "no": "5",
    "name": "冨士クリーニング",
    "postalCode": "960-1108",
    "address": "福島市成川字戸の内４１－６",
    "tel": "024-546-2173",
    "area": "福島",
    "link": ""
  },
  {
    "no": "6",
    "name": "川崎クリーニング",
    "postalCode": "960-1241",
    "address": "福島市松川町字天王原３",
    "tel": "024-567-2302",
    "area": "福島",
    "link": "https://kawasakicleaning.jimdofree.com/"
  },
  {
    "no": "7",
    "name": "山ギワクリーニング店",
    "postalCode": "960-2261",
    "address": "福島市庭坂字松ノ下３２－６",
    "tel": "024-591-1321",
    "area": "福島",
    "link": ""
  },
  {
    "no": "8",
    "name": "クリーニング北沢",
    "postalCode": "960-8003",
    "address": "福島市森合字屋敷下３８－１８",
    "tel": "024-557-2526",
    "area": "福島",
    "link": "https://cl-kitazawa.jp/"
  },
  {
    "no": "9",
    "name": "味沢クリーニング",
    "postalCode": "960-8068",
    "address": "福島市太田町１９－３０",
    "tel": "024-534-2951",
    "area": "福島",
    "link": ""
  },
  {
    "no": "10",
    "name": "(有)クリーニング三愛",
    "postalCode": "960-8071",
    "address": "福島市東中央二丁目７８",
    "tel": "024-535-0103",
    "area": "福島",
    "link": "https://cleaning-san-ai.shopinfo.jp/"
  },
  {
    "no": "11",
    "name": "(有)東洋舎クリーニング店",
    "postalCode": "960-8103",
    "address": "福島市舟場町３－５１",
    "tel": "024-523-3084",
    "area": "福島",
    "link": ""
  },
  {
    "no": "12",
    "name": "佐久間クリーニング(株)",
    "postalCode": "960-8105",
    "address": "福島市仲間町８－１０",
    "tel": "024-522-3011",
    "area": "福島",
    "link": ""
  },
  {
    "no": "13",
    "name": "三浦クリーニング店",
    "postalCode": "960-8117",
    "address": "福島市入江町１０－５",
    "tel": "024-534-8467",
    "area": "福島",
    "link": ""
  },
  {
    "no": "14",
    "name": "福島クリーニング商会",
    "postalCode": "960-8133",
    "address": "福島市桜木町７－１７",
    "tel": "024-534-6620",
    "area": "福島",
    "link": ""
  },
  {
    "no": "15",
    "name": "(株)ヤマカワドライ",
    "postalCode": "960-8154",
    "address": "福島市伏拝台田１１－３",
    "tel": "024-546-3666",
    "area": "福島",
    "link": "http://yamakawadry.com/"
  },
  {
    "no": "16",
    "name": "渡辺クリーニング",
    "postalCode": "960-8163",
    "address": "福島市方木田葉ノ木立２９－１２６",
    "tel": "024-546-4774",
    "area": "福島",
    "link": ""
  },
  {
    "no": "17",
    "name": "さふじクリーニング",
    "postalCode": "960-8204",
    "address": "福島市岡部内川原１１５－２",
    "tel": "024-535-5617",
    "area": "福島",
    "link": ""
  },
  {
    "no": "18",
    "name": "長南ドライクリーニング",
    "postalCode": "960-8254",
    "address": "福島市南沢又字柳清水１９－１１",
    "tel": "024-557-0556",
    "area": "福島",
    "link": ""
  },
  {
    "no": "19",
    "name": "田代クリーニング",
    "postalCode": "960-0601",
    "address": "伊達市保原町字栄町２８－１",
    "tel": "024-576-2715",
    "area": "伊達",
    "link": ""
  },
  {
    "no": "20",
    "name": "保原白洋社",
    "postalCode": "960-0619",
    "address": "伊達市保原町九丁目２",
    "tel": "024-576-3321",
    "area": "伊達",
    "link": ""
  },
  {
    "no": "21",
    "name": "(有)熊坂クリーニング",
    "postalCode": "960-0671",
    "address": "伊達市保原町東野崎１６１",
    "tel": "024-575-1581",
    "area": "伊達",
    "link": ""
  },
  {
    "no": "22",
    "name": "潮ランドリー",
    "postalCode": "960-0684",
    "address": "伊達市保原町上保原正地内３－４",
    "tel": "024-575-2390",
    "area": "伊達",
    "link": ""
  },
  {
    "no": "23",
    "name": "三和クリーニング店",
    "postalCode": "960-0684",
    "address": "伊達市保原町上保原字上ノ原３－１２",
    "tel": "024-576-3058",
    "area": "伊達",
    "link": ""
  },
  {
    "no": "24",
    "name": "浦野クリーニング店",
    "postalCode": "960-0768",
    "address": "伊達市梁川町柳字田町頭２５",
    "tel": "024-577-3542",
    "area": "伊達",
    "link": ""
  },
  {
    "no": "25",
    "name": "紺野ドライクリーニング店",
    "postalCode": "960-0778",
    "address": "伊達市梁川町字伝樋５－１２",
    "tel": "024-577-1762",
    "area": "伊達",
    "link": ""
  },
  {
    "no": "26",
    "name": "あさひドライクリーニング",
    "postalCode": "960-0801",
    "address": "伊達市霊山町大字掛田字辻向３８－４",
    "tel": "024-586-1088",
    "area": "伊達",
    "link": ""
  },
  {
    "no": "27",
    "name": "エーワンクリーニング",
    "postalCode": "969-1602",
    "address": "桑折町字町裏１７－２",
    "tel": "024-582-2833",
    "area": "伊達",
    "link": ""
  },
  {
    "no": "28",
    "name": "京屋クリーニング店",
    "postalCode": "969-1614",
    "address": "桑折町字本町５８",
    "tel": "024-582-2307",
    "area": "伊達",
    "link": ""
  },
  {
    "no": "29",
    "name": "五十嵐クリーニング店",
    "postalCode": "969-1617",
    "address": "桑折町字陣屋１３－１",
    "tel": "024-582-3231",
    "area": "伊達",
    "link": ""
  },
  {
    "no": "30",
    "name": "タカノクリーニング店",
    "postalCode": "969-1641",
    "address": "桑折町大字南半田字六角２８－２",
    "tel": "024-582-2431",
    "area": "伊達",
    "link": ""
  },
  {
    "no": "31",
    "name": "川俣舎クリーニング工場",
    "postalCode": "960-1423",
    "address": "川俣町池の入１３",
    "tel": "024-565-2629",
    "area": "川俣",
    "link": ""
  },
  {
    "no": "32",
    "name": "黒木クリーニング店",
    "postalCode": "960-1452",
    "address": "川俣町字後田１７",
    "tel": "024-565-3660",
    "area": "川俣",
    "link": ""
  },
  {
    "no": "33",
    "name": "今福ドライクリーニング店",
    "postalCode": "964-0074",
    "address": "二本松市岳温泉１－１２６",
    "tel": "0243-24-2026",
    "area": "二本松",
    "link": ""
  },
  {
    "no": "34",
    "name": "柴田クリーニング",
    "postalCode": "964-0111",
    "address": "二本松市太田芦堰７",
    "tel": "0243-46-3804",
    "area": "二本松",
    "link": ""
  },
  {
    "no": "35",
    "name": "アメリカヤクリーニング",
    "postalCode": "964-0872",
    "address": "二本松市藤太郎内６８",
    "tel": "0243-62-4844",
    "area": "二本松",
    "link": ""
  },
  {
    "no": "36",
    "name": "美保里クリーニング",
    "postalCode": "964-0906",
    "address": "二本松市若宮二丁目１５８－２２",
    "tel": "0243-22-4874",
    "area": "二本松",
    "link": ""
  },
  {
    "no": "37",
    "name": "半澤クリーニング店",
    "postalCode": "964-0911",
    "address": "二本松市亀谷１－５９",
    "tel": "0243-22-0511",
    "area": "二本松",
    "link": ""
  },
  {
    "no": "38",
    "name": "(有)ドライクリーニング平石屋",
    "postalCode": "964-0915",
    "address": "二本松市金色４０６－８",
    "tel": "0243-23-2929",
    "area": "二本松",
    "link": "https://www.hiraishiyacleaning.com/"
  },
  {
    "no": "39",
    "name": "(株)クリーニングハイエリート",
    "postalCode": "969-1403",
    "address": "二本松市渋川大壇２０－３",
    "tel": "0243-53-2406",
    "area": "二本松",
    "link": ""
  },
  {
    "no": "40",
    "name": "シミズクリーニング",
    "postalCode": "969-1149",
    "address": "本宮市本宮字万世１０８－７",
    "tel": "0243-34-2352",
    "area": "本宮",
    "link": ""
  },
  {
    "no": "41",
    "name": "柏屋クリーニング",
    "postalCode": "969-1149",
    "address": "本宮市本宮字万世２５－９",
    "tel": "0243-34-2088",
    "area": "本宮",
    "link": ""
  }
]