[
  {
    "no": "1",
    "name": "塩田クリーニング",
    "postalCode": "963-0104",
    "address": "郡山市安積町南長久保１－２６９",
    "tel": "024-945-7378",
    "area": "郡山",
    "link": ""
  },
  {
    "no": "2",
    "name": "(有)成田商会",
    "postalCode": "963-0112",
    "address": "郡山市安積町成田西畑１４",
    "tel": "024-945-2045",
    "area": "郡山",
    "link": "http://www.narita-syokai.co.jp/"
  },
  {
    "no": "3",
    "name": "クリーニングショップいまえ",
    "postalCode": "963-0201",
    "address": "郡山市大槻町字六角北１９－６",
    "tel": "024-952-5430",
    "area": "郡山",
    "link": ""
  },
  {
    "no": "4",
    "name": "(株)栁田商事",
    "postalCode": "963-0201",
    "address": "郡山市大槻町字下町東６４",
    "tel": "024-952-3357",
    "area": "郡山",
    "link": "http://www.yanagida-shoji.co.jp/"
  },
  {
    "no": "5",
    "name": "吉田クリーニング",
    "postalCode": "963-0201",
    "address": "郡山市大槻町西の宮前２３－３",
    "tel": "024-951-1807",
    "area": "郡山",
    "link": ""
  },
  {
    "no": "6",
    "name": "ハワイクリーニング社",
    "postalCode": "963-0204",
    "address": "郡山市土瓜１－４４",
    "tel": "024-951-4739",
    "area": "郡山",
    "link": ""
  },
  {
    "no": "7",
    "name": "(有)さくらサービス商会",
    "postalCode": "963-0211",
    "address": "郡山市片平町字大山南１－３６",
    "tel": "024-951-0327",
    "area": "郡山",
    "link": ""
  },
  {
    "no": "8",
    "name": "(有)クリナーズファクトリー",
    "postalCode": "963-0534",
    "address": "郡山市日和田町字泥夫１９－１３",
    "tel": "024-958-6173",
    "area": "郡山",
    "link": ""
  },
  {
    "no": "9",
    "name": "大富ランドリー",
    "postalCode": "963-0551",
    "address": "郡山市喜久田字寺久保２３－５０",
    "tel": "024-951-0370",
    "area": "郡山",
    "link": ""
  },
  {
    "no": "10",
    "name": "(有)郡山ベビ",
    "postalCode": "963-0724",
    "address": "郡山市田村町上行合字下川原８７－３",
    "tel": "024-944-6305",
    "area": "郡山",
    "link": ""
  },
  {
    "no": "11",
    "name": "クリーニングたかもり",
    "postalCode": "963-1165",
    "address": "郡山市田村町徳定下河原１７７－３",
    "tel": "024-944-6861",
    "area": "郡山",
    "link": ""
  },
  {
    "no": "12",
    "name": "熱海クリーニング",
    "postalCode": "963-1309",
    "address": "郡山市熱海町熱海６－２８",
    "tel": "024-984-2721",
    "area": "郡山",
    "link": ""
  },
  {
    "no": "13",
    "name": "(有)クリーニングハウスキョウヤ",
    "postalCode": "963-8011",
    "address": "郡山市若葉町１０－１６",
    "tel": "024-925-4646",
    "area": "郡山",
    "link": ""
  },
  {
    "no": "14",
    "name": "スワンクリーニング店",
    "postalCode": "963-8014",
    "address": "郡山市虎丸町９－１７",
    "tel": "024-932-3509",
    "area": "郡山",
    "link": ""
  },
  {
    "no": "15",
    "name": "松屋クリーニング",
    "postalCode": "963-8014",
    "address": "郡山市虎丸町２２－４",
    "tel": "024-922-2833",
    "area": "郡山",
    "link": ""
  },
  {
    "no": "16",
    "name": "ドライクリーニング和泉",
    "postalCode": "963-8033",
    "address": "郡山市亀田１－３９－６",
    "tel": "024-933-3682",
    "area": "郡山",
    "link": ""
  },
  {
    "no": "17",
    "name": "(有)クリーニングラビット",
    "postalCode": "963-8034",
    "address": "郡山市島二丁目４０－２６",
    "tel": "024-932-2955",
    "area": "郡山",
    "link": ""
  },
  {
    "no": "18",
    "name": "田代クリーニング",
    "postalCode": "963-8071",
    "address": "郡山市富久山町久保田乙高３７－１",
    "tel": "024-925-0213",
    "area": "郡山",
    "link": ""
  },
  {
    "no": "19",
    "name": "柳沼クリーニング",
    "postalCode": "963-8871",
    "address": "郡山市本町２－１１－１",
    "tel": "024-922-2577",
    "area": "郡山",
    "link": ""
  },
  {
    "no": "20",
    "name": "(有)東京クリーニング",
    "postalCode": "963-8876",
    "address": "郡山市麓山１－６－１１",
    "tel": "024-922-2179",
    "area": "郡山",
    "link": ""
  },
  {
    "no": "21",
    "name": "(有)ツチヤクリーニング",
    "postalCode": "963-8876",
    "address": "郡山市麓山２－６－１７",
    "tel": "024-922-4101",
    "area": "郡山",
    "link": ""
  },
  {
    "no": "22",
    "name": "(有)東洋クリーニング",
    "postalCode": "963-8877",
    "address": "郡山市堂前町２－１９",
    "tel": "024-922-5554",
    "area": "郡山",
    "link": ""
  },
  {
    "no": "23",
    "name": "滝根クリーニング",
    "postalCode": "963-3602",
    "address": "田村市滝根町神俣字町２４０",
    "tel": "0247-78-3051",
    "area": "田村",
    "link": ""
  },
  {
    "no": "24",
    "name": "吉田クリーニング店",
    "postalCode": "963-4111",
    "address": "田村市大越町上大越字蟹沢５６",
    "tel": "0247-79-2631",
    "area": "田村",
    "link": ""
  },
  {
    "no": "25",
    "name": "クリーニング白誠舎",
    "postalCode": "963-4312",
    "address": "田村市船引町船引字畑添３６－１",
    "tel": "0247-82-0241",
    "area": "田村",
    "link": ""
  },
  {
    "no": "26",
    "name": "ファッションクリーニング泉川",
    "postalCode": "963-3401",
    "address": "小野町大字小野新町字中通９５－１",
    "tel": "0247-72-3441",
    "area": "田村",
    "link": ""
  },
  {
    "no": "27",
    "name": "旭クリーニング店",
    "postalCode": "963-3401",
    "address": "小野町大字小野新町字本町２０－４",
    "tel": "0247-72-3824",
    "area": "田村",
    "link": ""
  },
  {
    "no": "28",
    "name": "吉田クリーニング店",
    "postalCode": "963-3401",
    "address": "小野町大字小野新町字中通１５４",
    "tel": "0247-72-2441",
    "area": "田村",
    "link": ""
  },
  {
    "no": "29",
    "name": "あさかクリーニング",
    "postalCode": "963-7766",
    "address": "三春町中町１５",
    "tel": "0247-62-3364",
    "area": "田村",
    "link": ""
  }
]