[
  {
    "no": "1",
    "name": "伏見クリーニング店",
    "postalCode": "975-0001",
    "address": "南相馬市原町区大町３－６６",
    "tel": "0244-23-6427",
    "area": "相馬",
    "link": ""
  },
  {
    "no": "2",
    "name": "原町クリーニング",
    "postalCode": "975-0003",
    "address": "南相馬市原町区栄町１－１０７",
    "tel": "0244-23-2725",
    "area": "相馬",
    "link": ""
  },
  {
    "no": "3",
    "name": "きのたクリーニング店",
    "postalCode": "975-0004",
    "address": "南相馬市原町区旭町３－１７",
    "tel": "0244-23-2469",
    "area": "相馬",
    "link": ""
  },
  {
    "no": "4",
    "name": "(有)庄司クリーニング",
    "postalCode": "975-0007",
    "address": "南相馬市原町区南町２－５４",
    "tel": "0244-23-2284",
    "area": "相馬",
    "link": ""
  },
  {
    "no": "5",
    "name": "（株）東京舎クリーニング",
    "postalCode": "975-0007",
    "address": "南相馬市原町区南町２－７０",
    "tel": "0244-23-2533",
    "area": "相馬",
    "link": "http://tk-factory.info/"
  },
  {
    "no": "6",
    "name": "(株)北洋舎クリーニング",
    "postalCode": "975-0007",
    "address": "南相馬市原町区南町２－１６３",
    "tel": "0244-23-3578",
    "area": "相馬",
    "link": "https://www.hokuyosha.com/"
  },
  {
    "no": "7",
    "name": "河口クリーニング",
    "postalCode": "979-0514",
    "address": "楢葉町下小塙街道東１－２",
    "tel": "0240-25-2556",
    "area": "双葉",
    "link": ""
  },
  {
    "no": "8",
    "name": "菅波クリーニング店",
    "postalCode": "979-0603",
    "address": "楢葉町井出西原６１－５",
    "tel": "0240-25-2427",
    "area": "双葉",
    "link": ""
  },
  {
    "no": "9",
    "name": "光洋舎クリーニング",
    "postalCode": "979-0604",
    "address": "楢葉町北田鐘突堂４－１０７",
    "tel": "0240-25-2358",
    "area": "双葉",
    "link": ""
  },
  {
    "no": "10",
    "name": "宍戸クリーニング店２",
    "postalCode": "979-1100",
    "address": "富岡町本岡新夜ノ森２１９－１",
    "tel": "0240-22-0456",
    "area": "双葉",
    "link": ""
  },
  {
    "no": "11",
    "name": "クリーニングショップワタナベ",
    "postalCode": "979-1112",
    "address": "富岡町中央１－１５７",
    "tel": "0240-22-3071",
    "area": "双葉",
    "link": ""
  },
  {
    "no": "12",
    "name": "クリーニングイトウ",
    "postalCode": "979-1152",
    "address": "富岡町本町１－３６",
    "tel": "0240-22-1783",
    "area": "双葉",
    "link": ""
  },
  {
    "no": "13",
    "name": "白英舎クリーニング店",
    "postalCode": "979-1161",
    "address": "富岡町夜ノ森北２－１",
    "tel": "0240-22-3446",
    "area": "双葉",
    "link": ""
  },
  {
    "no": "14",
    "name": "鈴木クリーニング",
    "postalCode": "979-1161",
    "address": "富岡町夜ノ森北２の１４－１１",
    "tel": "0240-22-3120",
    "area": "双葉",
    "link": ""
  },
  {
    "no": "15",
    "name": "青田クリーニング",
    "postalCode": "979-1521",
    "address": "浪江町下続町１１",
    "tel": "0240-35-2239",
    "area": "双葉",
    "link": ""
  },
  {
    "no": "16",
    "name": "原中クリーニング店",
    "postalCode": "979-1521",
    "address": "浪江町蛭子町８",
    "tel": "0240-35-3656",
    "area": "双葉",
    "link": ""
  }
]